[
    {
        "name": "Emil Hernvall",
        "address": "Sveavägen 1",
        "zip": "111 11",
        "city": "Stockholm",
        "phonenr": "0705-497019"
    },
    {
        "name": "Hannes Hernvall",
        "address": "Sveavägen 2",
        "zip": "111 11",
        "city": "Stockholm",
        "phonenr": "0705-497019"
    },
    {
        "name": "Lia Hernvall",
        "address": "Sveavägen 3",
        "zip": "111 11",
        "city": "Stockholm",
        "phonenr": "0705-111111"
    },
    {
        "name": "Torbjörn Hernvall",
        "address": "Sveavägen 4",
        "zip": "111 11",
        "city": "Stockholm",
        "phonenr": "0706-111111"
    },
    {
        "name": "Anette Hernvall",
        "address": "a",
        "zip": "b",
        "city": "c",
        "phonenr": "d"
    },
    {
        "name": "a",
        "address": "b",
        "zip": "c",
        "city": "d",
        "phonenr": "e"
    },
    {
        "name": "a",
        "address": "b",
        "zip": "c",
        "city": "d",
        "phonenr": "e"
    },
    {
        "name": "a",
        "address": "b",
        "zip": "c",
        "city": "d",
        "phonenr": "e"
    },
    {
        "name": "a",
        "address": "b",
        "zip": "c",
        "city": "d",
        "phonenr": "e"
    },
    {
        "name": "a",
        "address": "b",
        "zip": "c",
        "city": "d",
        "phonenr": "e"
    },
    {
        "name": "test",
        "address": "a",
        "zip": "b",
        "city": "c",
        "phonenr": "d"
    }
]